FENGYUN 1C DEB          
1 37463U 99025EJH 17346.37465626  .00001100  00000-0  26429-3 0  9996
2 37463  98.8053 140.3181 0118651 330.5271  28.9267 14.51474495483899
